{
  "type": "FeatureCollection",
  "features": [
    {
      "type": "Feature",
      "properties": {
        "norad_id": 37836,
        "name": "EUTELSAT 16A",
        "group": "eutelsat",
        "lat": -0.031662588213917466,
        "lon": 178.95368648517135,
        "alt_km": 35786.14083815323,
        "timestamp": "2025-12-19T04:59:47.971822+00:00",
        "meta_object_name": "EUTELSAT 16A",
        "meta_object_id": "2011-057A",
        "meta_epoch": "2025-12-18T20:13:07.334400",
        "meta_mean_motion": 1.00269993,
        "meta_eccentricity": 0.00058058,
        "meta_inclination": 0.0615,
        "meta_ra_of_asc_node": 334.1272,
        "meta_arg_of_pericenter": 293.9296,
        "meta_mean_anomaly": 138.9475,
        "meta_ephemeris_type": 0,
        "meta_classification_type": "U",
        "meta_norad_cat_id": 37836,
        "meta_element_set_no": 999,
        "meta_rev_at_epoch": 551,
        "meta_bstar": 0,
        "meta_mean_motion_dot": 1.29e-06,
        "meta_mean_motion_ddot": 0,
        "tle_line1": "1 37836U 11057A   25352.84244600  .00000129  00000+0  00000+0 0  9996",
        "tle_line2": "2 37836   0.0615 334.1272 0005805 293.9296 138.9475  1.00269993  5518"
      },
      "geometry": {
        "type": "Point",
        "coordinates": [
          178.95368648517135,
          -0.031662588213917466
        ]
      }
    },
    {
      "type": "Feature",
      "properties": {
        "norad_id": 38992,
        "name": "EUTELSAT 21B",
        "group": "eutelsat",
        "lat": -0.04111191236552485,
        "lon": -175.4236350816359,
        "alt_km": 35786.57133445194,
        "timestamp": "2025-12-19T04:59:47.971834+00:00",
        "meta_object_name": "EUTELSAT 21B",
        "meta_object_id": "2012-062B",
        "meta_epoch": "2025-12-18T23:17:38.719392",
        "meta_mean_motion": 1.00267672,
        "meta_eccentricity": 0.00032532,
        "meta_inclination": 0.0704,
        "meta_ra_of_asc_node": 336.683,
        "meta_arg_of_pericenter": 295.3091,
        "meta_mean_anomaly": 186.8638,
        "meta_ephemeris_type": 0,
        "meta_classification_type": "U",
        "meta_norad_cat_id": 38992,
        "meta_element_set_no": 999,
        "meta_rev_at_epoch": 4802,
        "meta_bstar": 0,
        "meta_mean_motion_dot": 1.55e-06,
        "meta_mean_motion_ddot": 0,
        "tle_line1": "1 38992U 12062B   25352.97058703  .00000155  00000+0  00000+0 0  9997",
        "tle_line2": "2 38992   0.0704 336.6830 0003253 295.3091 186.8638  1.00267672 48020"
      },
      "geometry": {
        "type": "Point",
        "coordinates": [
          -175.4236350816359,
          -0.04111191236552485
        ]
      }
    },
    {
      "type": "Feature",
      "properties": {
        "norad_id": 39020,
        "name": "EUTELSAT 70B",
        "group": "eutelsat",
        "lat": -0.07232265875785211,
        "lon": -126.52527561969072,
        "alt_km": 35769.010856268644,
        "timestamp": "2025-12-19T04:59:47.971846+00:00",
        "meta_object_name": "EUTELSAT 70B",
        "meta_object_id": "2012-069A",
        "meta_epoch": "2025-12-18T22:12:38.740896",
        "meta_mean_motion": 1.00271312,
        "meta_eccentricity": 0.00042955,
        "meta_inclination": 0.0608,
        "meta_ra_of_asc_node": 0.7537,
        "meta_arg_of_pericenter": 251.5762,
        "meta_mean_anomaly": 239.1053,
        "meta_ephemeris_type": 0,
        "meta_classification_type": "U",
        "meta_norad_cat_id": 39020,
        "meta_element_set_no": 999,
        "meta_rev_at_epoch": 4770,
        "meta_bstar": 0,
        "meta_mean_motion_dot": -1.8e-07,
        "meta_mean_motion_ddot": 0,
        "tle_line1": "1 39020U 12069A   25352.92544839 -.00000018  00000+0  00000+0 0  9991",
        "tle_line2": "2 39020   0.0608   0.7537 0004295 251.5762 239.1053  1.00271312 47708"
      },
      "geometry": {
        "type": "Point",
        "coordinates": [
          -126.52527561969072,
          -0.07232265875785211
        ]
      }
    },
    {
      "type": "Feature",
      "properties": {
        "norad_id": 39122,
        "name": "EUTELSAT 117 WEST A",
        "group": "eutelsat",
        "lat": 0.015222253994194756,
        "lon": 46.22912917910485,
        "alt_km": 35793.64307408902,
        "timestamp": "2025-12-19T04:59:47.971858+00:00",
        "meta_object_name": "EUTELSAT 117 WEST A",
        "meta_object_id": "2013-012A",
        "meta_epoch": "2025-12-18T23:00:43.782048",
        "meta_mean_motion": 1.00272954,
        "meta_eccentricity": 0.00027065,
        "meta_inclination": 0.0289,
        "meta_ra_of_asc_node": 47.8099,
        "meta_arg_of_pericenter": 224.9599,
        "meta_mean_anomaly": 43.4335,
        "meta_ephemeris_type": 0,
        "meta_classification_type": "U",
        "meta_norad_cat_id": 39122,
        "meta_element_set_no": 999,
        "meta_rev_at_epoch": 4662,
        "meta_bstar": 0,
        "meta_mean_motion_dot": 1.2e-07,
        "meta_mean_motion_ddot": 0,
        "tle_line1": "1 39122U 13012A   25352.95884007  .00000012  00000+0  00000+0 0  9993",
        "tle_line2": "2 39122   0.0289  47.8099 0002706 224.9599  43.4335  1.00272954 46620"
      },
      "geometry": {
        "type": "Point",
        "coordinates": [
          46.22912917910485,
          0.015222253994194756
        ]
      }
    },
    {
      "type": "Feature",
      "properties": {
        "norad_id": 39163,
        "name": "EUTELSAT 7B",
        "group": "eutelsat",
        "lat": 0.007476564544204355,
        "lon": 169.9781747653998,
        "alt_km": 35802.64659885816,
        "timestamp": "2025-12-19T04:59:47.971871+00:00",
        "meta_object_name": "EUTELSAT 7B",
        "meta_object_id": "2013-022A",
        "meta_epoch": "2025-12-18T20:10:37.572960",
        "meta_mean_motion": 1.00269498,
        "meta_eccentricity": 0.00042706,
        "meta_inclination": 0.0652,
        "meta_ra_of_asc_node": 356.1104,
        "meta_arg_of_pericenter": 326.7712,
        "meta_mean_anomaly": 74.4777,
        "meta_ephemeris_type": 0,
        "meta_classification_type": "U",
        "meta_norad_cat_id": 39163,
        "meta_element_set_no": 999,
        "meta_rev_at_epoch": 4613,
        "meta_bstar": 0,
        "meta_mean_motion_dot": 7.3e-07,
        "meta_mean_motion_ddot": 0,
        "tle_line1": "1 39163U 13022A   25352.84071265  .00000073  00000+0  00000+0 0  9998",
        "tle_line2": "2 39163   0.0652 356.1104 0004270 326.7712  74.4777  1.00269498 46137"
      },
      "geometry": {
        "type": "Point",
        "coordinates": [
          169.9781747653998,
          0.007476564544204355
        ]
      }
    },
    {
      "type": "Feature",
      "properties": {
        "norad_id": 39612,
        "name": "EXPRESS-AT1",
        "group": "eutelsat",
        "lat": -0.035685661684424205,
        "lon": -140.9980157199433,
        "alt_km": 35786.36778326905,
        "timestamp": "2025-12-19T04:59:47.971883+00:00",
        "meta_object_name": "EXPRESS-AT1",
        "meta_object_id": "2014-010A",
        "meta_epoch": "2025-12-18T20:24:36.234432",
        "meta_mean_motion": 1.00271181,
        "meta_eccentricity": 5.914e-05,
        "meta_inclination": 0.0193,
        "meta_ra_of_asc_node": 300.181,
        "meta_arg_of_pericenter": 185.8396,
        "meta_mean_anomaly": 323.8349,
        "meta_ephemeris_type": 0,
        "meta_classification_type": "U",
        "meta_norad_cat_id": 39612,
        "meta_element_set_no": 999,
        "meta_rev_at_epoch": 4301,
        "meta_bstar": 0,
        "meta_mean_motion_dot": 1.04e-06,
        "meta_mean_motion_ddot": 0,
        "tle_line1": "1 39612U 14010A   25352.85041938  .00000104  00000+0  00000+0 0  9995",
        "tle_line2": "2 39612   0.0193 300.1810 0000591 185.8396 323.8349  1.00271181 43015"
      },
      "geometry": {
        "type": "Point",
        "coordinates": [
          -140.9980157199433,
          -0.035685661684424205
        ]
      }
    },
    {
      "type": "Feature",
      "properties": {
        "norad_id": 39613,
        "name": "EXPRESS-AT2",
        "group": "eutelsat",
        "lat": -0.011331395926141923,
        "lon": -57.141979837317315,
        "alt_km": 35781.99077599631,
        "timestamp": "2025-12-19T04:59:47.971895+00:00",
        "meta_object_name": "EXPRESS-AT2",
        "meta_object_id": "2014-010B",
        "meta_epoch": "2025-12-18T22:31:16.603104",
        "meta_mean_motion": 1.00271791,
        "meta_eccentricity": 0.00010065,
        "meta_inclination": 0.013,
        "meta_ra_of_asc_node": 301.9106,
        "meta_arg_of_pericenter": 346.7821,
        "meta_mean_anomaly": 276.777,
        "meta_ephemeris_type": 0,
        "meta_classification_type": "U",
        "meta_norad_cat_id": 39613,
        "meta_element_set_no": 999,
        "meta_rev_at_epoch": 4269,
        "meta_bstar": 0,
        "meta_mean_motion_dot": -2.56e-06,
        "meta_mean_motion_ddot": 0,
        "tle_line1": "1 39613U 14010B   25352.93838661 -.00000256  00000+0  00000+0 0  9991",
        "tle_line2": "2 39613   0.0130 301.9106 0001006 346.7821 276.7770  1.00271791 42691"
      },
      "geometry": {
        "type": "Point",
        "coordinates": [
          -57.141979837317315,
          -0.011331395926141923
        ]
      }
    }
  ]
}